[{"OBJECT_NAME":"HORUS 2","OBJECT_ID":"2023-032A","EPOCH":"2026-03-09T22:32:30.893280","MEAN_MOTION":15.23604467,"ECCENTRICITY":0.00034558,"INCLINATION":97.3597,"RA_OF_ASC_NODE":146.3013,"ARG_OF_PERICENTER":105.0024,"MEAN_ANOMALY":255.1596,"EPHEMERIS_TYPE":0,"CLASSIFICATION_TYPE":"U","NORAD_CAT_ID":55844,"ELEMENT_SET_NO":999,"REV_AT_EPOCH":16637,"BSTAR":0.00034847707,"MEAN_MOTION_DOT":8.276e-5,"MEAN_MOTION_DDOT":0},{"OBJECT_NAME":"OBJECT Q","OBJECT_ID":"2025-313Q","EPOCH":"2026-03-09T22:26:39.769728","MEAN_MOTION":15.21804409,"ECCENTRICITY":0.0014523,"INCLINATION":97.401,"RA_OF_ASC_NODE":145.1966,"ARG_OF_PERICENTER":358.4503,"MEAN_ANOMALY":1.6686,"EPHEMERIS_TYPE":0,"CLASSIFICATION_TYPE":"U","NORAD_CAT_ID":67262,"ELEMENT_SET_NO":999,"REV_AT_EPOCH":1085,"BSTAR":0.00057243676,"MEAN_MOTION_DOT":0.00012974,"MEAN_MOTION_DDOT":0}]
